SES-8                   
1 39460U 13071A   22284.58714547 -.00000276  00000+0  00000+0 0  9997
2 39460   0.0103 211.9440 0001787 307.3873 167.2030  1.00271396 30947
INMARSAT 5-F1           
1 39476U 13073A   22284.47797625  .00000021  00000+0  00000+0 0  9999
2 39476   0.0196 214.0281 0000490  64.8216 335.8808  1.00270078 32101
TKSAT-1 (TUPAC KATARI)  
1 39481U 13075A   22284.49586865 -.00000201  00000+0  00000+0 0  9992
2 39481   0.0543  55.2853 0002269 137.2841 278.8065  1.00270078 32110
EXPRESS-AM5             
1 39487U 13077A   22284.58104888 -.00000287  00000+0  10000-3 0  9990
2 39487   0.0327 321.4912 0000925  23.2078  24.6744  1.00271372 32864
GSAT-14                 
1 39498U 14001A   22284.38799369 -.00000084  00000+0  00000+0 0  9992
2 39498   0.0326 106.7336 0006035 123.7085   3.1998  1.00272467 31915
THAICOM 6               
1 39500U 14002A   22284.58016093 -.00000128  00000+0  00000+0 0  9994
2 39500   0.0663 110.5193 0003770  73.6867 123.3174  1.00270568 31978
TDRS 12                 
1 39504U 14004A   22284.36995931 -.00000280  00000+0  00000+0 0  9992
2 39504   3.7702 349.3801 0002826 165.0252 317.8691  1.00272717 30790
ABS-2                   
1 39508U 14006A   22284.57846828 -.00000093  00000+0  00000+0 0  9993
2 39508   0.0579  62.1699 0002910 145.3098  95.8574  1.00271953 31801
ATHENA-FIDUS            
1 39509U 14006B   22284.45733411  .00000147  00000+0  00000+0 0  9993
2 39509   0.0155 223.1927 0001470 356.8241   2.4557  1.00273776 31590
TURKSAT 4A              
1 39522U 14007A   22284.52997205  .00000139  00000+0  00000+0 0  9991
2 39522   0.0502 260.1247 0004359 326.8299  25.9377  1.00275019 31509
EXPRESS-AT1             
1 39612U 14010A   22284.61289023  .00000071  00000+0  00000+0 0  9992
2 39612   0.0270 328.2091 0000280 307.2651  21.3763  1.00273779 31564
EXPRESS-AT2             
1 39613U 14010B   22284.58104888 -.00000288  00000+0  00000+0 0  9995
2 39613   0.0263 320.1815 0000963 321.5156  87.4856  1.00270709 31408
AMAZONAS 4A             
1 39616U 14011A   22284.44206050 -.00000259  00000+0  00000+0 0  9996
2 39616   0.0421 269.8305 0002278 297.0710 258.2978  1.00272729 31210
ASTRA 5B                
1 39617U 14011B   22284.10535427  .00000147  00000+0  00000+0 0  9998
2 39617   0.0797 300.8864 0004577 255.7154 252.5247  1.00273506 31186
IRNSS-1B                
1 39635U 14017A   22284.47237994  .00000081  00000+0  00000+0 0  9999
2 39635  29.3603 263.1642 0020653 193.4463 148.6000  1.00276765 31301
LUCH 5V                 
1 39727U 14023A   22284.58557624 -.00000275  00000+0  00000+0 0  9991
2 39727   1.7717  76.5659 0003078 143.0000 106.1284  1.00275082 30872
KAZSAT-3                
1 39728U 14023B   22284.57355942  .00000054  00000+0  00000+0 0  9994
2 39728   0.0311 107.4459 0000310 253.6660 284.0280  1.00271483 28963
EUTELSAT 3B             
1 39773U 14030A   22284.38660343  .00000013  00000+0  00000+0 0  9990
2 39773   0.0650  15.9940 0005698 183.1812 323.0585  1.00271808 30581
ASIASAT 8 (AMOS-7)      
1 40107U 14046A   22284.30813547 -.00000041  00000+0  00000+0 0  9990
2 40107   0.0175 217.3384 0002095 342.3893 287.1757  1.00269823 88669
ASIASAT 6               
1 40141U 14052A   22283.87986587 -.00000371  00000+0  00000+0 0  9997
2 40141   0.0352 114.1609 0000915  83.3543 258.6066  1.00270099 29670
OPTUS 10                
1 40146U 14054A   22284.24424758 -.00000154  00000+0  00000+0 0  9992
2 40146   0.0696 107.9094 0004352  85.9129  69.9491  1.00271324 29544
MEASAT-3B               
1 40147U 14054B   22284.58480705 -.00000248  00000+0  00000+0 0  9998
2 40147   0.0643  61.7032 0000414 131.0094 129.4891  1.00270854 29425
LUCH (OLYMP)            
1 40258U 14058A   22284.37449374 -.00000148  00000+0  00000+0 0  9998
2 40258   0.0172 198.4064 0001017  43.4416 254.8270  1.00272225 27507
HIMAWARI-8              
1 40267U 14060A   22284.55384873 -.00000282  00000+0  00000+0 0  9992
2 40267   0.0212 164.8407 0001206  53.7278 141.6082  1.00272927 29279
IRNSS-1C                
1 40269U 14061A   22284.58234556 -.00000166  00000+0  00000+0 0  9991
2 40269   3.2053 124.0363 0019111   8.5887 180.1841  1.00273944 29200
INTELSAT 30 (IS-30)     
1 40271U 14062A   22284.28195646 -.00000157  00000+0  00000+0 0  9998
2 40271   0.0150 243.5394 0002281 205.4219 297.3539  1.00269337 29097
ARSAT 1                 
1 40272U 14062B   22284.50389003 -.00000266  00000+0  00000+0 0  9997
2 40272   0.0227 297.3204 0002002 269.8959 282.4667  1.00271656 29135
EXPRESS-AM6             
1 40277U 14064A   22284.61160465  .00000091  00000+0  00000+0 0  9990
2 40277   0.0281 300.4023 0000394 245.2412 107.7367  1.00273837 29183
GSAT-16                 
1 40332U 14078A   22284.47739242  .00000078  00000+0  00000+0 0  9991
2 40332   0.0261 123.9052 0004254 358.6830 124.3827  1.00272525 28622
DIRECTV 14              
1 40333U 14078B   22284.50917162 -.00000132  00000+0  00000+0 0  9997
2 40333   0.0228 107.1433 0000261 106.4408 250.5731  1.00270301 28588
YAMAL 401               
1 40345U 14082A   22284.58480676 -.00000234  00000+0  00000+0 0  9991
2 40345   0.0173 217.1461 0000742  53.3053  50.1752  1.00269208 28922
ASTRA 2G                
1 40364U 14089A   22284.52718163  .00000143  00000+0  00000+0 0  9996
2 40364   0.0094   7.6300 0001655  99.9401 130.5303  1.00274862 28484
FENGYUN 2G              
1 40367U 14090A   22284.58857716 -.00000307  00000+0  00000+0 0  9998
2 40367   2.2234  88.2526 0002834 198.9792  44.4865  1.00268665 28519
MUOS-3                  
1 40374U 15002A   22284.44910572 -.00000134  00000+0  00000+0 0  9993
2 40374   2.6032  17.0167 0059460 179.9826 329.2472  1.00273029 28105
INMARSAT 5-F2           
1 40384U 15005A   22284.51242387 -.00000292  00000+0  00000+0 0  9992
2 40384   0.0188 212.8074 0000250  20.4017 276.3444  1.00268983 27504
ABS-3A                  
1 40424U 15010A   22284.23401390 -.00000033  00000+0  00000+0 0  9996
2 40424   0.0128 229.0327 0002237 237.2418 354.8452  1.00272650 27905
EUTELSAT 115 WEST B     
1 40425U 15010B   22284.24078743 -.00000033  00000+0  00000+0 0  9990
2 40425   0.0230  55.2690 0000184  10.2694 286.0794  1.00272467 27941
EXPRESS-AM7             
1 40505U 15012A   22284.52953604  .00000144  00000+0  00000+0 0  9992
2 40505   0.0183 214.6822 0002948   2.4791  33.5375  1.00270491 27525
IRNSS-1D                
1 40547U 15018A   22283.84317461 -.00000304  00000+0  00000+0 0  9992
2 40547  28.7426 263.2064 0019096 191.2632 340.1920  1.00268294 27508
BEIDOU 17               
1 40549U 15019A   22284.54078488 -.00000169  00000+0  00000+0 0  9995
2 40549  51.6857 311.4053 0038668 198.7492 160.4148  1.00272143 27591
THOR 7                  
1 40613U 15022A   22284.30621582 -.00000015  00000+0  00000+0 0  9994
2 40613   0.0115 204.2078 0002661 354.5262 290.7461  1.00274068 27330
TURKMENALEM52E/MONACOSAT
1 40617U 15023A   22284.46021174  .00000097  00000+0  00000+0 0  9996
2 40617   0.0173 164.6690 0002964  45.6313  27.4206  1.00271570 27346
DIRECTV 15              
1 40663U 15026A   22284.52054924 -.00000109  00000+0  00000+0 0  9991
2 40663   0.0168 155.7350 0000408 236.3310  72.5793  1.00271216 26980
SKY MEXICO-1            
1 40664U 15026B   22284.50031456 -.00000241  00000+0  00000+0 0  9992
2 40664   0.0258 285.7515 0002818 295.8803 259.7987  1.00271851 26970
METEOSAT-11 (MSG-4)     
1 40732U 15034A   22284.30630302 -.00000010  00000+0  00000+0 0  9994
2 40732   0.5399  73.8687 0000557  69.4033 346.7641  1.00277405 26549
STAR ONE C4             
1 40733U 15034B   22284.28086716 -.00000272  00000+0  00000+0 0  9996
2 40733   0.0403 328.1567 0002180 270.9378 171.8776  1.00268911 26536
WGS F7 (USA 263)        
1 40746U 15036A   22284.19773854  .00000011  00000+0  00000+0 0  9998
2 40746   0.0194 241.2454 0000284 316.1539  68.5932  1.00272102 26388
INTELSAT 34 (IS-34)     
1 40874U 15039A   22284.51242344 -.00000292  00000+0  00000+0 0  9996
2 40874   0.0154 258.6961 0000023 207.1819  43.2094  1.00272107 26140
EUTELSAT 8 WEST B       
1 40875U 15039B   22284.44910375 -.00000072  00000+0  00000+0 0  9991
2 40875   0.0675   9.8620 0002184 154.2281   9.6568  1.00271999 26164
GSAT-6                  
1 40880U 15041A   22284.53300372 -.00000168  00000+0  00000+0 0  9996
2 40880   0.0413  98.8774 0003854  98.2247  97.4588  1.00273386 26116
INMARSAT 5-F3           
1 40882U 15042A   22284.12693184  .00000043  00000+0  00000+0 0  9991
2 40882   0.0194 204.1339 0000264 313.4554  87.4049  1.00271077 26079
MUOS-4                  
1 40887U 15044A   22284.57706801 -.00000100  00000+0  00000+0 0  9993
2 40887   2.5743  12.2108 0049044 359.0014 291.7079  1.00272440 26077
TJS-1                   
1 40892U 15046A   22284.54086826 -.00000163  00000+0  00000+0 0  9995
2 40892   0.0363 319.7896 0005503  28.2548  21.7368  1.00273435 26079
EXPRESS-AM8             
1 40895U 15048A   22284.08830207 -.00000119  00000+0  00000+0 0  9990
2 40895   0.0276 318.1355 0000299 303.7494 135.5753  1.00271622 25893
BEIDOU 20               
1 40938U 15053A   22284.27589295 -.00000142  00000+0  00000+0 0  9999
2 40938  51.3242 274.5373 0046026 200.0551 100.6703  1.00266548 25865
SKY MUSTER 1 (NBN1A)    
1 40940U 15054A   22284.55384865 -.00000285  00000+0  00000+0 0  9998
2 40940   0.0133 242.0649 0001880 316.1912 161.5149  1.00272218 25774
ARSAT 2                 
1 40941U 15054B   22284.54007469 -.00000231  00000+0  00000+0 0  9991
2 40941   0.0216 290.1943 0001792 263.4471 299.9064  1.00271804 25844
MORELOS 3               
1 40946U 15056A   22284.50747755 -.00000054  00000+0  00000+0 0  9996
2 40946   3.5748 336.7724 0002452 185.0692 287.8258  1.00272774 25791
APSTAR 9                
1 40982U 15059A   22284.58104888 -.00000272  00000+0  00000+0 0  9993
2 40982   0.0253 241.6065 0003057 321.6817 168.0625  1.00272263 25673
